[Satellite]
VERSION=1.1
NAME=MOLNIYA 3-42
NICKNAME=MOLNIYA 3-42
TLE1=1 22178U 92067A   15052.44808470  .00000084  00000-0 -31777-2 0  9992
TLE2=2 22178  63.0355 208.2926 7027746 288.9079  13.3902  2.20433060165605
